{
  "norad_id": 57696,
  "name": "JILIN-1 KUANFU 02A",
  "history": [
    {
      "epoch": "2026-03-28T20:00:12.426624Z",
      "apogee_km": 543.7773389518206,
      "perigee_km": 529.4274568689134,
      "latitude_deg": 2.2504182025791094e-05,
      "longitude_deg": 56.44107095643357,
      "height_km": 542.1311199593737,
      "semi_major_axis_km": 6914.739397910367,
      "eccentricity": 0.00103763,
      "inclination_deg": 97.5526,
      "raan_deg": 182.7411,
      "arg_perigee_deg": 250.0511,
      "mean_anomaly_deg": 109.9601,
      "mean_motion_rev_day": 15.09868193
    },
    {
      "epoch": "2026-03-29T05:32:48.132096Z",
      "apogee_km": 543.7813494065549,
      "perigee_km": 529.3752315703505,
      "latitude_deg": 1.415699855696647e-05,
      "longitude_deg": -86.70772810380082,
      "height_km": 542.2837035159006,
      "semi_major_axis_km": 6914.715290488452,
      "eccentricity": 0.0010417,
      "inclination_deg": 97.5527,
      "raan_deg": 183.133,
      "arg_perigee_deg": 248.6309,
      "mean_anomaly_deg": 111.3809,
      "mean_motion_rev_day": 15.09876089
    },
    {
      "epoch": "2026-03-30T05:24:16.918848Z",
      "apogee_km": 543.8155962048895,
      "perigee_km": 529.2597910942759,
      "latitude_deg": 8.580418704991376e-05,
      "longitude_deg": -84.57759479322397,
      "height_km": 542.6902125744358,
      "semi_major_axis_km": 6914.674693649583,
      "eccentricity": 0.00105253,
      "inclination_deg": 97.5528,
      "raan_deg": 184.1129,
      "arg_perigee_deg": 245.036,
      "mean_anomaly_deg": 114.9777,
      "mean_motion_rev_day": 15.09889386
    },
    {
      "epoch": "2026-03-30T11:46:00.442560Z",
      "apogee_km": 543.8207185098427,
      "perigee_km": 529.2277408642612,
      "latitude_deg": 3.98608875641294e-05,
      "longitude_deg": 179.99108102259703,
      "height_km": 542.7891914260955,
      "semi_major_axis_km": 6914.661229687052,
      "eccentricity": 0.00105522,
      "inclination_deg": 97.5528,
      "raan_deg": 184.3742,
      "arg_perigee_deg": 244.1268,
      "mean_anomaly_deg": 115.8874,
      "mean_motion_rev_day": 15.09893796
    },
    {
      "epoch": "2026-03-30T21:18:35.626176Z",
      "apogee_km": 543.8294202790194,
      "perigee_km": 529.1824087788891,
      "latitude_deg": -3.75874959160238e-05,
      "longitude_deg": 36.84447183470548,
      "height_km": 542.9487220478159,
      "semi_major_axis_km": 6914.642914528954,
      "eccentricity": 0.00105913,
      "inclination_deg": 97.5529,
      "raan_deg": 184.7661,
      "arg_perigee_deg": 242.6741,
      "mean_anomaly_deg": 117.341,
      "mean_motion_rev_day": 15.09899795
    },
    {
      "epoch": "2026-03-31T19:34:37.235136Z",
      "apogee_km": 543.8392730194828,
      "perigee_km": 529.0931901677868,
      "latitude_deg": 2.9652129526802773e-05,
      "longitude_deg": 62.837782381812204,
      "height_km": 543.3080083930269,
      "semi_major_axis_km": 6914.6032315936345,
      "eccentricity": 0.0010663,
      "inclination_deg": 97.553,
      "raan_deg": 185.6806,
      "arg_perigee_deg": 239.3314,
      "mean_anomaly_deg": 120.6865,
      "mean_motion_rev_day": 15.09912793
    },
    {
      "epoch": "2026-04-01T19:26:03.871392Z",
      "apogee_km": 543.8213586078082,
      "perigee_km": 529.028344982079,
      "latitude_deg": -4.482987309977307e-05,
      "longitude_deg": 64.97682050091383,
      "height_km": 543.6854515094554,
      "semi_major_axis_km": 6914.561851794943,
      "eccentricity": 0.0010697,
      "inclination_deg": 97.5533,
      "raan_deg": 186.6604,
      "arg_perigee_deg": 235.5925,
      "mean_anomaly_deg": 124.4293,
      "mean_motion_rev_day": 15.09926347
    },
    {
      "epoch": "2026-04-02T19:17:29.570208Z",
      "apogee_km": 543.7487946291285,
      "perigee_km": 528.9697502963654,
      "latitude_deg": -7.422729129058618e-05,
      "longitude_deg": 67.11996890790401,
      "height_km": 544.0197514992443,
      "semi_major_axis_km": 6914.496272462747,
      "eccentricity": 0.0010687,
      "inclination_deg": 97.5535,
      "raan_deg": 187.6404,
      "arg_perigee_deg": 231.7039,
      "mean_anomaly_deg": 128.3229,
      "mean_motion_rev_day": 15.09947828
    },
    {
      "epoch": "2026-04-02T22:28:20.900064Z",
      "apogee_km": 543.7393634368627,
      "perigee_km": 528.9625495148375,
      "latitude_deg": -1.950284353615341e-05,
      "longitude_deg": 19.406051437457407,
      "height_km": 544.0659265354593,
      "semi_major_axis_km": 6914.48795647585,
      "eccentricity": 0.00106854,
      "inclination_deg": 97.5535,
      "raan_deg": 187.771,
      "arg_perigee_deg": 231.1565,
      "mean_anomaly_deg": 128.8711,
      "mean_motion_rev_day": 15.09950552
    },
    {
      "epoch": "2026-04-03T20:44:19.668192Z",
      "apogee_km": 543.6869852590289,
      "perigee_km": 528.8970216206708,
      "latitude_deg": 2.9533326429991233e-05,
      "longitude_deg": 45.41143229729056,
      "height_km": 544.3709484780363,
      "semi_major_axis_km": 6914.429003439849,
      "eccentricity": 0.0010695,
      "inclination_deg": 97.5535,
      "raan_deg": 188.6857,
      "arg_perigee_deg": 227.4787,
      "mean_anomaly_deg": 132.554,
      "mean_motion_rev_day": 15.09969863
    },
    {
      "epoch": "2026-04-04T20:35:42.948672Z",
      "apogee_km": 543.6620117788334,
      "perigee_km": 528.8278967341712,
      "latitude_deg": 2.214885443275143e-05,
      "longitude_deg": 47.56468016776843,
      "height_km": 544.7050611169343,
      "semi_major_axis_km": 6914.3819542565025,
      "eccentricity": 0.0010727,
      "inclination_deg": 97.5534,
      "raan_deg": 189.6657,
      "arg_perigee_deg": 223.5098,
      "mean_anomaly_deg": 136.5286,
      "mean_motion_rev_day": 15.09985275
    },
    {
      "epoch": "2026-04-05T14:05:23.473536Z",
      "apogee_km": 543.6501634658698,
      "perigee_km": 528.7710405741309,
      "latitude_deg": -4.779869645924791e-06,
      "longitude_deg": 145.14605164142966,
      "height_km": 544.9362446852854,
      "semi_major_axis_km": 6914.34760202,
      "eccentricity": 0.00107596,
      "inclination_deg": 97.5532,
      "raan_deg": 190.3844,
      "arg_perigee_deg": 220.6442,
      "mean_anomaly_deg": 139.3985,
      "mean_motion_rev_day": 15.09996528
    },
    {
      "epoch": "2026-04-05T20:27:05.388480Z",
      "apogee_km": 543.6576128693387,
      "perigee_km": 528.7447682599286,
      "latitude_deg": -2.683260200664604e-06,
      "longitude_deg": 49.72154189412254,
      "height_km": 545.0249163986045,
      "semi_major_axis_km": 6914.338190564634,
      "eccentricity": 0.0010784,
      "inclination_deg": 97.5531,
      "raan_deg": 190.6458,
      "arg_perigee_deg": 219.627,
      "mean_anomaly_deg": 140.4172,
      "mean_motion_rev_day": 15.09999611
    },
    {
      "epoch": "2026-04-06T05:59:38.183136Z",
      "apogee_km": 543.6655941572953,
      "perigee_km": 528.7068707033268,
      "latitude_deg": -2.2360025435737263e-05,
      "longitude_deg": -93.41499500269616,
      "height_km": 545.1472409410856,
      "semi_major_axis_km": 6914.323232430311,
      "eccentricity": 0.00108172,
      "inclination_deg": 97.553,
      "raan_deg": 191.0378,
      "arg_perigee_deg": 218.1669,
      "mean_anomaly_deg": 141.8795,
      "mean_motion_rev_day": 15.10004511
    },
    {
      "epoch": "2026-04-07T13:48:06.762528Z",
      "apogee_km": 543.7184242070798,
      "perigee_km": 528.5742077457626,
      "latitude_deg": -6.626395876688469e-06,
      "longitude_deg": 149.46631294902738,
      "height_km": 545.5463872201198,
      "semi_major_axis_km": 6914.28331597642,
      "eccentricity": 0.00109514,
      "inclination_deg": 97.5526,
      "raan_deg": 192.3445,
      "arg_perigee_deg": 213.4254,
      "mean_anomaly_deg": 146.6285,
      "mean_motion_rev_day": 15.10017587
    },
    {
      "epoch": "2026-04-07T20:09:48.356928Z",
      "apogee_km": 543.7333484983828,
      "perigee_km": 528.5454489609328,
      "latitude_deg": -1.9430553245920097e-05,
      "longitude_deg": 54.04304412083031,
      "height_km": 545.620691769354,
      "semi_major_axis_km": 6914.276398729658,
      "eccentricity": 0.0010983,
      "inclination_deg": 97.5525,
      "raan_deg": 192.6058,
      "arg_perigee_deg": 212.5517,
      "mean_anomaly_deg": 147.5036,
      "mean_motion_rev_day": 15.10019853
    },
    {
      "epoch": "2026-04-08T15:14:52.949184Z",
      "apogee_km": 543.7773541301895,
      "perigee_km": 528.4628278142536,
      "latitude_deg": -4.3489743431569394e-05,
      "longitude_deg": 127.77413342271258,
      "height_km": 545.8298974766262,
      "semi_major_axis_km": 6914.257090972221,
      "eccentricity": 0.00110746,
      "inclination_deg": 97.5522,
      "raan_deg": 193.3898,
      "arg_perigee_deg": 210.0254,
      "mean_anomaly_deg": 150.0341,
      "mean_motion_rev_day": 15.10026178
    },
    {
      "epoch": "2026-04-09T19:52:29.322624Z",
      "apogee_km": 543.837334980466,
      "perigee_km": 528.3370272112852,
      "latitude_deg": 1.507427199145095e-05,
      "longitude_deg": 58.372906480984675,
      "height_km": 546.1219356729662,
      "semi_major_axis_km": 6914.224181095875,
      "eccentricity": 0.0011209,
      "inclination_deg": 97.5521,
      "raan_deg": 194.5658,
      "arg_perigee_deg": 206.1814,
      "mean_anomaly_deg": 153.885,
      "mean_motion_rev_day": 15.10036959
    },
    {
      "epoch": "2026-04-10T07:00:26.591616Z",
      "apogee_km": 543.8512212267051,
      "perigee_km": 528.2907961032042,
      "latitude_deg": -1.0905489119679102e-05,
      "longitude_deg": -108.61551068795832,
      "height_km": 546.219838902959,
      "semi_major_axis_km": 6914.208008664954,
      "eccentricity": 0.00112525,
      "inclination_deg": 97.5521,
      "raan_deg": 195.0232,
      "arg_perigee_deg": 204.6849,
      "mean_anomaly_deg": 155.3843,
      "mean_motion_rev_day": 15.10042257
    }
  ]
}